OBJECT_NAME,OBJECT_ID,EPOCH,MEAN_MOTION,ECCENTRICITY,INCLINATION,RA_OF_ASC_NODE,ARG_OF_PERICENTER,MEAN_ANOMALY,EPHEMERIS_TYPE,CLASSIFICATION_TYPE,NORAD_CAT_ID,ELEMENT_SET_NO,REV_AT_EPOCH,BSTAR,MEAN_MOTION_DOT,MEAN_MOTION_DDOT
COSMOS 2534 (758),2019-030A,2026-07-16T15:35:19.703040,2.13102191,.0013502,64.3705,191.6243,275.0108,146.6615,0,U,44299,999,5555,0,.52E-6,0
BEIDOU-3 IGSO-2 (C39),2019-035A,2026-07-20T06:50:53.025216,1.00256016,.00392668,55.2517,158.5718,216.3906,144.0267,0,U,44337,999,2600,0,-.108E-5,0
GPS BIII-2  (PRN 18),2019-056A,2026-07-20T12:54:33.759072,2.00570379,.00636586,55.6191,329.8169,198.2353,150.7454,0,U,44506,999,5073,0,-.109E-5,0
BEIDOU-3 M24 (C46),2019-061A,2026-07-19T23:55:07.811616,1.86229210,.00087009,54.3974,181.6213,359.9963,359.9812,0,U,44542,999,4640,0,.73E-6,0
BEIDOU-3 M23 (C45),2019-061B,2026-07-20T05:52:15.922272,1.86227453,.00060136,54.3961,181.5811,341.7340,95.9084,0,U,44543,999,4641,0,.75E-6,0
EUTELSAT 5 WEST B (EGNOS/PRN 121),2019-067A,2026-07-20T07:58:20.301024,1.00271553,.00031749,0.0759,322.7301,155.5269,294.4216,0,U,44624,999,2476,0,-.44E-6,0
BEIDOU-3 M22 (C44),2019-078A,2026-07-20T08:58:29.329248,1.86227182,.00055648,53.9034,298.6592,50.1692,309.9175,0,U,44793,999,4526,0,-.97E-6,0
BEIDOU-3 M21 (C43),2019-078B,2026-07-19T23:26:38.266656,1.86227606,.00035251,53.8770,298.6333,49.7600,310.3090,0,U,44794,999,4526,0,-.96E-6,0
COSMOS 2544 (759),2019-088A,2026-07-18T22:32:17.742336,2.13102904,.00120499,65.5828,72.6716,253.1294,106.8089,0,U,44850,999,5139,0,-.38E-6,0
BEIDOU-3 M19 (C41),2019-090A,2026-07-19T07:19:46.002720,1.86231477,.00166077,56.5872,61.7289,297.5472,169.9419,0,U,44864,999,4483,0,-.73E-6,0
BEIDOU-3 M20 (C42),2019-090B,2026-07-19T06:36:38.646720,1.86231465,.00142256,56.5887,61.7642,312.2916,224.7019,0,U,44865,999,4481,0,-.72E-6,0
BEIDOU-3 G2 (C60),2020-017A,2026-07-20T15:13:10.208352,1.00272526,.00019211,2.9310,47.8211,57.1200,141.7796,0,U,45344,999,2359,0,-.143E-5,0
COSMOS 2545 (760),2020-018A,2026-07-19T14:28:44.173056,2.13102333,.0009726,64.3337,311.2795,229.7423,130.1960,0,U,45358,999,4935,0,-.8E-6,0
BEIDOU-3 G3 (C61),2020-040A,2026-07-20T15:21:54.370368,1.00274004,.00022514,2.5278,67.5047,312.1052,259.8110,0,U,45807,999,2240,0,-.356E-5,0
GPS BIII-3  (PRN 23),2020-041A,2026-07-19T21:11:43.698624,2.00557951,.00654428,56.6917,27.6753,204.6789,328.4725,0,U,45854,999,4469,0,-.88E-6,0
GALAXY 30 (WAAS/PRN 135),2020-056C,2026-07-20T11:44:38.586336,1.00271386,.00021859,0.0194,60.8176,54.0916,234.5102,0,U,46114,999,2162,0,.36E-6,0
COSMOS 2547 (705K),2020-075A,2026-07-20T06:17:43.424160,2.13099966,.00094658,64.6016,191.3717,239.9348,119.9732,0,U,46805,999,4461,0,.83E-6,0
GPS BIII-4  (PRN 14),2020-078A,2026-07-20T09:48:58.596192,2.00565064,.00746647,53.9767,209.4308,207.9413,322.4110,0,U,46826,999,4217,0,.66E-6,0
GPS BIII-5  (PRN 11),2021-054A,2026-07-20T10:13:46.026624,2.00567041,.00265626,55.1567,331.1232,228.5811,140.5597,0,U,48859,999,3742,0,-.11E-5,0
QZS-1R (QZSS/PRN 196),2021-096A,2026-07-19T13:27:51.734016,1.00244085,.07555125,37.5263,79.1015,272.3091,279.1178,0,U,49336,999,1733,0,-.322E-5,0
GSAT0223 (GALILEO 27),2021-116A,2026-07-20T08:57:14.296032,1.70476368,.00024821,57.1482,340.7789,195.0305,131.7493,0,U,49809,999,2874,0,-.107E-5,0
GSAT0224 (GALILEO 28),2021-116B,2026-07-19T22:53:39.367968,1.70476408,.00019036,57.1487,340.7887,182.1498,0.0180,0,U,49810,999,2876,0,-.107E-5,0
COSMOS 2557 (706K),2022-075A,2026-07-19T11:42:34.358688,2.13102100,.00109026,64.2776,313.3470,270.7384,89.1574,0,U,52984,999,3140,0,-.8E-6,0
COSMOS 2559 (707K),2022-130A,2026-07-20T05:54:24.878592,2.13101763,.00131607,64.2496,313.4029,181.5748,178.4417,0,U,54031,999,2939,0,-.85E-6,0
COSMOS 2564 (761),2022-161A,2026-07-20T02:08:28.175136,2.13102056,.00121837,64.7442,191.6195,224.7642,135.1393,0,U,54377,999,2833,0,.82E-6,0
GPS BIII-6  (PRN 28),2023-009A,2026-07-20T11:45:12.811968,2.00569361,.00055291,55.1255,147.2099,333.2721,120.4416,0,U,55268,999,2591,0,.3E-6,0
BEIDOU-3 G4 (C62),2023-066A,2026-07-20T15:30:23.555808,1.00271163,.00050631,0.4562,340.4931,183.7378,146.8500,0,U,56564,999,1172,0,-.281E-5,0
NVS-01 (IRNSS-1J),2023-076A,2026-07-20T12:02:02.952384,1.00276429,.00029855,2.0891,242.8218,18.8857,346.5530,0,U,56759,999,1145,0,-.336E-5,0
COSMOS 2569 (703K),2023-114A,2026-07-20T02:26:09.944736,2.13103821,.00094908,65.3210,71.5108,295.5049,64.4648,0,U,57517,999,2296,0,-.49E-6,0
BEIDOU-3 M28 (C50),2023-207A,2026-07-20T01:17:23.722656,1.86229765,.00022586,55.7822,61.1944,8.4424,351.6234,0,U,58654,999,1745,0,-.79E-6,0
BEIDOU-3 M26 (C48),2023-207B,2026-07-19T20:25:47.359776,1.86229762,.00017673,55.7844,61.1877,324.4121,35.6385,0,U,58655,999,1743,0,-.78E-6,0
