COSMOS 2534 [GLONASS-M] 
1 44299U 19030A   26197.64953360  .00000052  00000+0  00000+0 0  9997
2 44299  64.3705 191.6243 0013502 275.0108 146.6615  2.13102191 55554
BEIDOU-3 IGSO-2         
1 44337U 19035A   26201.28533594 -.00000108  00000+0  00000+0 0  9997
2 44337  55.2517 158.5718 0039266 216.3906 144.0267  1.00256016 26009
NAVSTAR 78 (USA 293)    
1 44506U 19056A   26201.53789073 -.00000109  00000+0  00000+0 0  9992
2 44506  55.6191 329.8169 0063658 198.2353 150.7454  2.00570379 50739
BEIDOU-3 M24            
1 44542U 19061A   26200.99661819  .00000073  00000+0  00000+0 0  9993
2 44542  54.3974 181.6213 0008700 359.9963 359.9812  1.86229210 46406
BEIDOU-3 M23            
1 44543U 19061B   26201.24462873  .00000075  00000+0  00000+0 0  9994
2 44543  54.3961 181.5811 0006013 341.7340  95.9084  1.86227453 46415
EUTELSAT 5 WEST B       
1 44624U 19067A   26201.33217941 -.00000044  00000+0  00000+0 0  9991
2 44624   0.0759 322.7301 0003174 155.5269 294.4216  1.00271553 24760
BEIDOU-3 M22            
1 44793U 19078A   26201.37395057 -.00000097  00000+0  00000+0 0  9997
2 44793  53.9034 298.6592 0005564  50.1692 309.9175  1.86227182 45265
BEIDOU-3 M21            
1 44794U 19078B   26200.97683179 -.00000096  00000+0  00000+0 0  9997
2 44794  53.8770 298.6333 0003525  49.7600 310.3090  1.86227606 45266
COSMOS 2544 [GLONASS-M] 
1 44850U 19088A   26199.93909424 -.00000038  00000+0  00000+0 0  9994
2 44850  65.5828  72.6716 0012049 253.1294 106.8089  2.13102904 51390
BEIDOU-3 M19            
1 44864U 19090A   26200.30539355 -.00000073  00000+0  00000+0 0  9997
2 44864  56.5872  61.7289 0016607 297.5472 169.9419  1.86231477 44837
BEIDOU-3 M20            
1 44865U 19090B   26200.27544730 -.00000072  00000+0  00000+0 0  9996
2 44865  56.5887  61.7642 0014225 312.2916 224.7019  1.86231465 44810
BEIDOU-3 G2             
1 45344U 20017A   26201.63414593 -.00000143  00000+0  00000+0 0  9993
2 45344   2.9310  47.8211 0001921  57.1200 141.7796  1.00272526 23597
COSMOS 2545 [GLONASS-M] 
1 45358U 20018A   26200.60328904 -.00000080  00000+0  00000+0 0  9995
2 45358  64.3337 311.2795 0009726 229.7423 130.1960  2.13102333 49353
BEIDOU-3 G3             
1 45807U 20040A   26201.64021262 -.00000356  00000+0  00000+0 0  9997
2 45807   2.5278  67.5047 0002251 312.1052 259.8110  1.00274004 22405
NAVSTAR 79 (USA 304)    
1 45854U 20041A   26200.88314466 -.00000088  00000+0  00000+0 0  9998
2 45854  56.6917  27.6753 0065442 204.6789 328.4725  2.00557951 44697
GALAXY 30 (G-30)        
1 46114U 20056C   26201.48933549  .00000036  00000+0  00000+0 0  9992
2 46114   0.0194  60.8176 0002185  54.0916 234.5102  1.00271386 21627
COSMOS 2547 [GLONASS-K] 
1 46805U 20075A   26201.26230815  .00000083  00000+0  00000+0 0  9994
2 46805  64.6016 191.3717 0009465 239.9348 119.9732  2.13099966 44611
NAVSTAR 80 (USA 309)    
1 46826U 20078A   26201.40901153  .00000066  00000+0  00000+0 0  9997
2 46826  53.9767 209.4308 0074664 207.9413 322.4110  2.00565064 42179
NAVSTAR 81 (USA 319)    
1 48859U 21054A   26201.42622716 -.00000110  00000+0  00000+0 0  9998
2 48859  55.1567 331.1232 0026562 228.5811 140.5597  2.00567041 37420
QZS-1R (MICHIBIKI-1R)   
1 49336U 21096A   26200.56101544 -.00000322  00000+0  00000+0 0  9995
2 49336  37.5263  79.1015 0755512 272.3091 279.1178  1.00244085 17338
GSAT0223 (GALILEO 27)   
1 49809U 21116A   26201.37308213 -.00000107  00000+0  00000+0 0  9996
2 49809  57.1482 340.7789 0002482 195.0305 131.7493  1.70476368 28747
GSAT0224 (GALILEO 28)   
1 49810U 21116B   26200.95392787 -.00000107  00000+0  00000+0 0  9990
2 49810  57.1487 340.7887 0001903 182.1498   0.0180  1.70476408 28768
COSMOS 2557 [GLONASS-K] 
1 52984U 22075A   26200.48789767 -.00000080  00000+0  00000+0 0  9997
2 52984  64.2776 313.3470 0010902 270.7384  89.1574  2.13102100 31408
COSMOS 2559 [GLONASS-K] 
1 54031U 22130A   26201.24612128 -.00000085  00000+0  00000+0 0  9990
2 54031  64.2496 313.4029 0013160 181.5748 178.4417  2.13101763 29392
COSMOS 2564 [GLONASS-M] 
1 54377U 22161A   26201.08921499  .00000082  00000+0  00000+0 0  9999
2 54377  64.7442 191.6195 0012183 224.7642 135.1393  2.13102056 28330
NAVSTAR 82 (USA 343)    
1 55268U 23009A   26201.48973162  .00000030  00000+0  00000+0 0  9992
2 55268  55.1255 147.2099 0005529 333.2721 120.4416  2.00569361 25912
BEIDOU-3 G4             
1 56564U 23066A   26201.64610597 -.00000281  00000+0  00000+0 0  9992
2 56564   0.4562 340.4931 0005063 183.7378 146.8500  1.00271163 11726
NVS-01 (IRNSS-1J)       
1 56759U 23076A   26201.50142306 -.00000336  00000+0  00000+0 0  9993
2 56759   2.0891 242.8218 0002985  18.8857 346.5530  1.00276429 11450
COSMOS 2569 [GLONASS-K2]
1 57517U 23114A   26201.10150399 -.00000049  00000+0  00000+0 0  9997
2 57517  65.3210  71.5108 0009490 295.5049  64.4648  2.13103821 22964
BEIDOU-3 M28            
1 58654U 23207A   26201.05374679 -.00000079  00000+0  00000+0 0  9999
2 58654  55.7822  61.1944 0002258   8.4424 351.6234  1.86229765 17450
BEIDOU-3 M26            
1 58655U 23207B   26200.85124259 -.00000078  00000+0  00000+0 0  9993
2 58655  55.7844  61.1877 0001767 324.4121  35.6385  1.86229762 17430
